{"fetched_at":"2026-07-12T17:32:45.898Z","source":"https://celestrak.org/NORAD/elements/gp.php?NAME=GLOBAL&FORMAT=JSON","constellation":"blacksky-gen2","records":[{"OBJECT_NAME":"GLOBAL-2","OBJECT_ID":"2018-099BG","EPOCH":"2026-07-12T13:01:18.854112","CLASSIFICATION_TYPE":"U","MEAN_MOTION":15.08816851,"ECCENTRICITY":0.0007551,"INCLINATION":97.3547,"RA_OF_ASC_NODE":229.0016,"ARG_OF_PERICENTER":74.5757,"MEAN_ANOMALY":285.6306,"EPHEMERIS_TYPE":0,"NORAD_CAT_ID":43812,"ELEMENT_SET_NO":999,"REV_AT_EPOCH":41573,"BSTAR":0.000083393,"MEAN_MOTION_DOT":0.00001252,"MEAN_MOTION_DDOT":0},{"OBJECT_NAME":"GLOBAL-4","OBJECT_ID":"2019-054E","EPOCH":"2026-07-12T03:40:40.728288","CLASSIFICATION_TYPE":"U","MEAN_MOTION":15.66840785,"ECCENTRICITY":0.0004839,"INCLINATION":45.0057,"RA_OF_ASC_NODE":92.0863,"ARG_OF_PERICENTER":175.6688,"MEAN_ANOMALY":184.4252,"EPHEMERIS_TYPE":0,"NORAD_CAT_ID":44499,"ELEMENT_SET_NO":999,"REV_AT_EPOCH":38427,"BSTAR":0.00035845225,"MEAN_MOTION_DOT":0.00038641,"MEAN_MOTION_DDOT":0},{"OBJECT_NAME":"GLOBAL-9","OBJECT_ID":"2021-023G","EPOCH":"2026-07-11T22:03:30.729888","CLASSIFICATION_TYPE":"U","MEAN_MOTION":15.47521708,"ECCENTRICITY":0.0003107,"INCLINATION":44.9831,"RA_OF_ASC_NODE":111.4178,"ARG_OF_PERICENTER":140.8754,"MEAN_ANOMALY":219.2362,"EPHEMERIS_TYPE":0,"NORAD_CAT_ID":47971,"ELEMENT_SET_NO":999,"REV_AT_EPOCH":29877,"BSTAR":0.00027585,"MEAN_MOTION_DOT":0.00014163,"MEAN_MOTION_DDOT":0},{"OBJECT_NAME":"GLOBAL-14","OBJECT_ID":"2021-106A","EPOCH":"2026-07-12T04:43:11.189856","CLASSIFICATION_TYPE":"U","MEAN_MOTION":15.51722687,"ECCENTRICITY":0.00172901,"INCLINATION":42.0026,"RA_OF_ASC_NODE":142.3164,"ARG_OF_PERICENTER":204.0869,"MEAN_ANOMALY":155.9168,"EPHEMERIS_TYPE":0,"NORAD_CAT_ID":49469,"ELEMENT_SET_NO":999,"REV_AT_EPOCH":26201,"BSTAR":0.00026617253,"MEAN_MOTION_DOT":0.00016087,"MEAN_MOTION_DDOT":0},{"OBJECT_NAME":"GLOBAL-12","OBJECT_ID":"2021-115BA","EPOCH":"2026-07-12T12:50:38.757120","CLASSIFICATION_TYPE":"U","MEAN_MOTION":15.55217842,"ECCENTRICITY":0.0002832,"INCLINATION":53.1953,"RA_OF_ASC_NODE":282.5146,"ARG_OF_PERICENTER":66.9953,"MEAN_ANOMALY":293.1358,"EPHEMERIS_TYPE":0,"NORAD_CAT_ID":49772,"ELEMENT_SET_NO":999,"REV_AT_EPOCH":25984,"BSTAR":0.00036078,"MEAN_MOTION_DOT":0.00024414,"MEAN_MOTION_DDOT":0},{"OBJECT_NAME":"GLOBAL-13","OBJECT_ID":"2021-115BB","EPOCH":"2026-07-12T12:24:23.294592","CLASSIFICATION_TYPE":"U","MEAN_MOTION":15.470387,"ECCENTRICITY":0.00009,"INCLINATION":53.1982,"RA_OF_ASC_NODE":294.0871,"ARG_OF_PERICENTER":153.7688,"MEAN_ANOMALY":206.3366,"EPHEMERIS_TYPE":0,"NORAD_CAT_ID":49773,"ELEMENT_SET_NO":999,"REV_AT_EPOCH":25968,"BSTAR":0.00023535,"MEAN_MOTION_DOT":0.00011674,"MEAN_MOTION_DDOT":0},{"OBJECT_NAME":"GLOBAL-17","OBJECT_ID":"2021-120A","EPOCH":"2026-07-12T11:48:58.265856","CLASSIFICATION_TYPE":"U","MEAN_MOTION":15.53622303,"ECCENTRICITY":0.0013418,"INCLINATION":41.9943,"RA_OF_ASC_NODE":258.3536,"ARG_OF_PERICENTER":69.7148,"MEAN_ANOMALY":290.5138,"EPHEMERIS_TYPE":0,"NORAD_CAT_ID":49949,"ELEMENT_SET_NO":999,"REV_AT_EPOCH":25883,"BSTAR":0.00028142,"MEAN_MOTION_DOT":0.00018216,"MEAN_MOTION_DDOT":0},{"OBJECT_NAME":"GLOBAL-16","OBJECT_ID":"2021-120B","EPOCH":"2026-07-12T12:58:53.500800","CLASSIFICATION_TYPE":"U","MEAN_MOTION":15.51399124,"ECCENTRICITY":0.0011564,"INCLINATION":41.9943,"RA_OF_ASC_NODE":262.2834,"ARG_OF_PERICENTER":59.6715,"MEAN_ANOMALY":300.5272,"EPHEMERIS_TYPE":0,"NORAD_CAT_ID":49950,"ELEMENT_SET_NO":999,"REV_AT_EPOCH":25878,"BSTAR":0.00027624,"MEAN_MOTION_DOT":0.00016457,"MEAN_MOTION_DDOT":0},{"OBJECT_NAME":"GLOBAL-18","OBJECT_ID":"2022-034B","EPOCH":"2026-07-12T06:16:14.616192","CLASSIFICATION_TYPE":"U","MEAN_MOTION":15.47134177,"ECCENTRICITY":0.0004322,"INCLINATION":52.98,"RA_OF_ASC_NODE":136.7234,"ARG_OF_PERICENTER":16.8415,"MEAN_ANOMALY":343.2733,"EPHEMERIS_TYPE":0,"NORAD_CAT_ID":52196,"ELEMENT_SET_NO":999,"REV_AT_EPOCH":24084,"BSTAR":0.00026841,"MEAN_MOTION_DOT":0.00013426,"MEAN_MOTION_DDOT":0},{"OBJECT_NAME":"GLOBAL-19","OBJECT_ID":"2023-041B","EPOCH":"2026-07-12T02:16:29.826624","CLASSIFICATION_TYPE":"U","MEAN_MOTION":15.38628097,"ECCENTRICITY":0.00091816,"INCLINATION":42.0022,"RA_OF_ASC_NODE":56.5737,"ARG_OF_PERICENTER":198.0441,"MEAN_ANOMALY":162.0074,"EPHEMERIS_TYPE":0,"NORAD_CAT_ID":55982,"ELEMENT_SET_NO":999,"REV_AT_EPOCH":18576,"BSTAR":0.00022913334,"MEAN_MOTION_DOT":0.00008692,"MEAN_MOTION_DDOT":0},{"OBJECT_NAME":"GLOBAL-5","OBJECT_ID":"2023-041C","EPOCH":"2026-07-11T23:56:38.441760","CLASSIFICATION_TYPE":"U","MEAN_MOTION":15.38639725,"ECCENTRICITY":0.00079972,"INCLINATION":42.0017,"RA_OF_ASC_NODE":56.6672,"ARG_OF_PERICENTER":193.1516,"MEAN_ANOMALY":166.9117,"EPHEMERIS_TYPE":0,"NORAD_CAT_ID":55983,"ELEMENT_SET_NO":999,"REV_AT_EPOCH":18575,"BSTAR":0.00021560038,"MEAN_MOTION_DOT":0.00008162,"MEAN_MOTION_DDOT":0}]}
